*******************************************************************************
Ephemeris / WWW_USER Fri Mar  7 10:34:26 2025 Pasadena, USA      / Horizons    
*******************************************************************************
Target body name: (2017 SN16)                     {source: JPL#20}
Center body name: Earth (399)                     {source: DE441}
Center-site name: Mauna Kea
*******************************************************************************
Start time      : A.D. 2018-Nov-22 03:51:00.0000 UT      
Stop  time      : A.D. 2018-Nov-22 16:25:00.0000 UT      
Step-size       : 1 minutes
*******************************************************************************
Target pole/equ : undefined
Target radii    : undefined                                                    
Center geodetic : 204.5278, 19.8260847, 4.21024   {E-lon(deg),Lat(deg),Alt(km)}
Center cylindric: 204.5278, 6006.35451, 2151.0229 {E-lon(deg),Dxy(km),Dz(km)}
Center pole/equ : ITRF93                          {East-longitude positive}
Center radii    : 6378.137, 6378.137, 6356.752 km {Equator_a, b, pole_c}       
Target primary  : Sun
Vis. interferer : MOON (R_eq= 1737.400) km        {source: DE441}
Rel. light bend : Sun                             {source: DE441}
Rel. lght bnd GM: 1.3271E+11 km^3/s^2                                          
Small-body perts: Yes                             {source: SB441-N16}
Atmos refraction: NO (AIRLESS)
RA format       : HMS
Time format     : CAL 
Calendar mode   : Mixed Julian/Gregorian
RTS-only print  : NO       
EOP file        : eop.250306.p250602                                           
EOP coverage    : DATA-BASED 1962-JAN-20 TO 2025-MAR-06. PREDICTS-> 2025-JUN-01
Units conversion: 1 au= 149597870.700 km, c= 299792.458 km/s, 1 day= 86400.0 s 
Table cut-offs 1: Elevation (-90.0deg=NO ),Airmass (>38.000=NO), Daylight (YES)
Table cut-offs 2: Solar elongation (  0.0,180.0=NO ),Local Hour Angle( 0.0=NO )
Table cut-offs 3: RA/DEC angular rate (     0.0=NO )                           
*******************************************************************************
Initial IAU76/J2000 heliocentric ecliptic osculating elements (au, days, deg.):
  EPOCH=  2458305.5 ! 2018-Jul-06.00 (TDB)         Residual RMS= .23751        
   EC= .1454884975659386   QR= .8682464985612274   TP= 2458145.5722438502      
   OM= 2.759719470837934   W=  137.1017088998531   IN= 13.38264682844635       
  Equivalent ICRF heliocentric cartesian coordinates (au, au/d):
   X= 5.756755401261899E-01  Y=-7.953424559592890E-01  Z=-6.031561894536019E-01
  VX= 1.332076113263395E-02 VY= 5.454663564585547E-03 VZ= 3.896229736425836E-03
Asteroid physical parameters (km, seconds, rotational period in hours):        
   GM= n.a.                RAD= n.a.               ROTPER= n.a.                
   H= 23.34                G= .150                 B-V= n.a.                   
                           ALBEDO= n.a.            STYP= n.a.                  
*******************************************************************************
 Date__(UT)__HR:MN     R.A._________(ICRF)_________DEC
******************************************************
$$SOE
 2018-Nov-22 12:03  m  20 29 31.149004 +30 26 39.07022
 2018-Nov-22 12:04  m  20 29 31.134931 +30 26 39.86482
 2018-Nov-22 12:05  m  20 29 31.120892 +30 26 40.65968
 2018-Nov-22 12:06  m  20 29 31.106887 +30 26 41.45478
 2018-Nov-22 12:07  m  20 29 31.092915 +30 26 42.25014
 2018-Nov-22 12:08  m  20 29 31.078978 +30 26 43.04576
 2018-Nov-22 12:09  m  20 29 31.065074 +30 26 43.84163
 2018-Nov-22 12:10  m  20 29 31.051204 +30 26 44.63777
 2018-Nov-22 12:11  m  20 29 31.037367 +30 26 45.43415
 2018-Nov-22 12:12  m  20 29 31.023563 +30 26 46.23080
 2018-Nov-22 12:13  m  20 29 31.009792 +30 26 47.02771
 2018-Nov-22 12:14  m  20 29 30.996053 +30 26 47.82488
 2018-Nov-22 12:15  m  20 29 30.982347 +30 26 48.62231
 2018-Nov-22 12:16  m  20 29 30.968673 +30 26 49.42001
 2018-Nov-22 12:17  m  20 29 30.955032 +30 26 50.21797
 2018-Nov-22 12:18  m  20 29 30.941423 +30 26 51.01619
 2018-Nov-22 12:19  m  20 29 30.927845 +30 26 51.81468
 2018-Nov-22 12:20  m  20 29 30.914299 +30 26 52.61344
 2018-Nov-22 12:21  m  20 29 30.900784 +30 26 53.41246
 2018-Nov-22 12:22  m  20 29 30.887301 +30 26 54.21175
 2018-Nov-22 12:23  m  20 29 30.873848 +30 26 55.01131
 2018-Nov-22 12:24  m  20 29 30.860427 +30 26 55.81115
 2018-Nov-22 12:25  m  20 29 30.847036 +30 26 56.61125
 2018-Nov-22 12:26  m  20 29 30.833675 +30 26 57.41162
 2018-Nov-22 12:27  m  20 29 30.820345 +30 26 58.21227
 2018-Nov-22 12:28  m  20 29 30.807045 +30 26 59.01320
 2018-Nov-22 12:29  m  20 29 30.793775 +30 26 59.81439
 2018-Nov-22 12:30  m  20 29 30.780535 +30 27 00.61586
 2018-Nov-22 12:31  m  20 29 30.767324 +30 27 01.41761
 2018-Nov-22 12:32  m  20 29 30.754143 +30 27 02.21964
 2018-Nov-22 12:33  m  20 29 30.740990 +30 27 03.02194
 2018-Nov-22 12:34  m  20 29 30.727867 +30 27 03.82453
 2018-Nov-22 12:35  m  20 29 30.714773 +30 27 04.62739
 2018-Nov-22 12:36  m  20 29 30.701707 +30 27 05.43053
 2018-Nov-22 12:37  m  20 29 30.688669 +30 27 06.23396
 2018-Nov-22 12:38  m  20 29 30.675660 +30 27 07.03766
 2018-Nov-22 12:39  m  20 29 30.662679 +30 27 07.84165
 2018-Nov-22 12:40  m  20 29 30.649725 +30 27 08.64593
 2018-Nov-22 12:41  m  20 29 30.636799 +30 27 09.45049
 2018-Nov-22 12:42  m  20 29 30.623901 +30 27 10.25533
 2018-Nov-22 12:43  m  20 29 30.611029 +30 27 11.06046
 2018-Nov-22 12:44  m  20 29 30.598185 +30 27 11.86588
 2018-Nov-22 12:45  m  20 29 30.585368 +30 27 12.67158
 2018-Nov-22 12:46  m  20 29 30.572577 +30 27 13.47757
 2018-Nov-22 12:47  m  20 29 30.559813 +30 27 14.28386
 2018-Nov-22 12:48  m  20 29 30.547074 +30 27 15.09043
 2018-Nov-22 12:49  m  20 29 30.534362 +30 27 15.89729
 2018-Nov-22 12:50  m  20 29 30.521676 +30 27 16.70445
 2018-Nov-22 12:51  m  20 29 30.509015 +30 27 17.51189
 2018-Nov-22 12:52  m  20 29 30.496380 +30 27 18.31964
 2018-Nov-22 12:53  m  20 29 30.483770 +30 27 19.12767
 2018-Nov-22 12:54  m  20 29 30.471185 +30 27 19.93600
 2018-Nov-22 12:55  m  20 29 30.458625 +30 27 20.74462
 2018-Nov-22 12:56  m  20 29 30.446090 +30 27 21.55354
 2018-Nov-22 12:57  m  20 29 30.433578 +30 27 22.36276
 2018-Nov-22 12:58  m  20 29 30.421092 +30 27 23.17227
 2018-Nov-22 12:59  m  20 29 30.408629 +30 27 23.98208
 2018-Nov-22 13:00  m  20 29 30.396190 +30 27 24.79219
 2018-Nov-22 13:01  m  20 29 30.383774 +30 27 25.60260
 2018-Nov-22 13:02  m  20 29 30.371382 +30 27 26.41331
 2018-Nov-22 13:03  m  20 29 30.359013 +30 27 27.22432
 2018-Nov-22 13:04  m  20 29 30.346667 +30 27 28.03564
 2018-Nov-22 13:05  m  20 29 30.334344 +30 27 28.84725
 2018-Nov-22 13:06  m  20 29 30.322043 +30 27 29.65917
 2018-Nov-22 13:07  m  20 29 30.309765 +30 27 30.47139
 2018-Nov-22 13:08  m  20 29 30.297509 +30 27 31.28391
 2018-Nov-22 13:09  m  20 29 30.285275 +30 27 32.09674
 2018-Nov-22 13:10  m  20 29 30.273062 +30 27 32.90987
 2018-Nov-22 13:11  m  20 29 30.260871 +30 27 33.72331
 2018-Nov-22 13:12  m  20 29 30.248702 +30 27 34.53706
 2018-Nov-22 13:13  m  20 29 30.236553 +30 27 35.35111
 2018-Nov-22 13:14  m  20 29 30.224425 +30 27 36.16548
 2018-Nov-22 13:15  m  20 29 30.212318 +30 27 36.98014
 2018-Nov-22 13:16  m  20 29 30.200232 +30 27 37.79512
 2018-Nov-22 13:17  m  20 29 30.188166 +30 27 38.61041
 2018-Nov-22 13:18  m  20 29 30.176119 +30 27 39.42601
 2018-Nov-22 13:19  m  20 29 30.164093 +30 27 40.24192
 2018-Nov-22 13:20  m  20 29 30.152086 +30 27 41.05814
 2018-Nov-22 13:21  m  20 29 30.140099 +30 27 41.87467
 2018-Nov-22 13:22  m  20 29 30.128131 +30 27 42.69152
 2018-Nov-22 13:23  m  20 29 30.116181 +30 27 43.50867
 2018-Nov-22 13:24  m  20 29 30.104251 +30 27 44.32614
 2018-Nov-22 13:25  m  20 29 30.092339 +30 27 45.14393
 2018-Nov-22 13:26  m  20 29 30.080445 +30 27 45.96203
 2018-Nov-22 13:27  m  20 29 30.068570 +30 27 46.78044
 2018-Nov-22 13:28  m  20 29 30.056712 +30 27 47.59917
 2018-Nov-22 13:29  m  20 29 30.044872 +30 27 48.41822
 2018-Nov-22 13:30  m  20 29 30.033050 +30 27 49.23758
 2018-Nov-22 13:31  m  20 29 30.021245 +30 27 50.05726
 2018-Nov-22 13:32  m  20 29 30.009457 +30 27 50.87726
 2018-Nov-22 13:33  m  20 29 29.997685 +30 27 51.69757
 2018-Nov-22 13:34  m  20 29 29.985931 +30 27 52.51821
 2018-Nov-22 13:35  m  20 29 29.974192 +30 27 53.33916
 2018-Nov-22 13:36  m  20 29 29.962470 +30 27 54.16043
 2018-Nov-22 13:37  m  20 29 29.950764 +30 27 54.98203
 2018-Nov-22 13:38  m  20 29 29.939073 +30 27 55.80394
 2018-Nov-22 13:39  m  20 29 29.927398 +30 27 56.62617
 2018-Nov-22 13:40  m  20 29 29.915738 +30 27 57.44873
 2018-Nov-22 13:41  m  20 29 29.904093 +30 27 58.27161
 2018-Nov-22 13:42  m  20 29 29.892463 +30 27 59.09480
 2018-Nov-22 13:43  m  20 29 29.880848 +30 27 59.91833
 2018-Nov-22 13:44  m  20 29 29.869247 +30 28 00.74217
 2018-Nov-22 13:45  m  20 29 29.857660 +30 28 01.56634
 2018-Nov-22 13:46  m  20 29 29.846088 +30 28 02.39083
 2018-Nov-22 13:47  m  20 29 29.834528 +30 28 03.21565
 2018-Nov-22 13:48  m  20 29 29.822983 +30 28 04.04079
 2018-Nov-22 13:49  m  20 29 29.811451 +30 28 04.86626
 2018-Nov-22 13:50  m  20 29 29.799931 +30 28 05.69205
 2018-Nov-22 13:51  m  20 29 29.788425 +30 28 06.51817
 2018-Nov-22 13:52  m  20 29 29.776931 +30 28 07.34461
 2018-Nov-22 13:53  m  20 29 29.765450 +30 28 08.17138
 2018-Nov-22 13:54  m  20 29 29.753981 +30 28 08.99848
 2018-Nov-22 13:55  m  20 29 29.742524 +30 28 09.82590
 2018-Nov-22 13:56  m  20 29 29.731078 +30 28 10.65365
 2018-Nov-22 13:57  m  20 29 29.719644 +30 28 11.48173
 2018-Nov-22 13:58  m  20 29 29.708221 +30 28 12.31014
 2018-Nov-22 13:59  m  20 29 29.696810 +30 28 13.13888
 2018-Nov-22 14:00  m  20 29 29.685409 +30 28 13.96794
 2018-Nov-22 14:01  m  20 29 29.674019 +30 28 14.79734
 2018-Nov-22 14:02  m  20 29 29.662639 +30 28 15.62706
 2018-Nov-22 14:03  m  20 29 29.651269 +30 28 16.45712
 2018-Nov-22 14:04  m  20 29 29.639909 +30 28 17.28750
 2018-Nov-22 14:05  m  20 29 29.628559 +30 28 18.11822
